[
    {
        "Altitude(m)": 557154.2856342307,
        "Argument of Periapsis(deg)": 0.033114955553567506,
        "Eccentricity": 0.0,
        "Inclination(deg)": 53.0,
        "Latitude(deg)": 40.96798880818625,
        "Longitude(deg)": 100.41548415816817,
        "Mean Anomaly(deg)": 125.00346433788795,
        "RAAN(deg)": 64.95071684264009,
        "Satellite Name": "Starlink Shell 1 290",
        "Satellite Number": 290,
        "Semi-Major Axis(m)": 6931778.249405717,
        "Time(s)": 950
    },
    {
        "Altitude(m)": 557071.9840958122,
        "Argument of Periapsis(deg)": 0.03346353403307874,
        "Eccentricity": 0.0,
        "Inclination(deg)": 53.0,
        "Latitude(deg)": 40.58502358838826,
        "Longitude(deg)": 101.02913236180541,
        "Mean Anomaly(deg)": 125.63029554144464,
        "RAAN(deg)": 64.95019807256261,
        "Satellite Name": "Starlink Shell 1 290",
        "Satellite Number": 290,
        "Semi-Major Axis(m)": 6931778.249405717,
        "Time(s)": 960
    },
    {
        "Altitude(m)": 556989.3675982809,
        "Argument of Periapsis(deg)": 0.03381211251258998,
        "Eccentricity": 0.0,
        "Inclination(deg)": 53.0,
        "Latitude(deg)": 40.198361754916135,
        "Longitude(deg)": 101.63532371274256,
        "Mean Anomaly(deg)": 126.25712674500137,
        "RAAN(deg)": 64.94967930248514,
        "Satellite Name": "Starlink Shell 1 290",
        "Satellite Number": 290,
        "Semi-Major Axis(m)": 6931778.249405717,
        "Time(s)": 970
    },
    {
        "Altitude(m)": 556906.4895743544,
        "Argument of Periapsis(deg)": 0.034160690992101214,
        "Eccentricity": 0.0,
        "Inclination(deg)": 53.0,
        "Latitude(deg)": 39.808093460218835,
        "Longitude(deg)": 102.23417422938492,
        "Mean Anomaly(deg)": 126.88395794855808,
        "RAAN(deg)": 64.94916053240767,
        "Satellite Name": "Starlink Shell 1 290",
        "Satellite Number": 290,
        "Semi-Major Axis(m)": 6931778.249405717,
        "Time(s)": 980
    },
    {
        "Altitude(m)": 556823.4037997385,
        "Argument of Periapsis(deg)": 0.034509269471612446,
        "Eccentricity": 0.0,
        "Inclination(deg)": 53.0,
        "Latitude(deg)": 39.41430701230951,
        "Longitude(deg)": 102.82580168545029,
        "Mean Anomaly(deg)": 127.51078915211478,
        "RAAN(deg)": 64.9486417623302,
        "Satellite Name": "Starlink Shell 1 290",
        "Satellite Number": 290,
        "Semi-Major Axis(m)": 6931778.249405717,
        "Time(s)": 990
    }
]